[{"OBJECT_NAME":"STARLINK-5426","OBJECT_ID":"2022-175AW","EPOCH":"2026-03-09T22:23:02.468544","MEAN_MOTION":15.08832559,"ECCENTRICITY":0.00012058,"INCLINATION":53.219,"RA_OF_ASC_NODE":347.4862,"ARG_OF_PERICENTER":97.7493,"MEAN_ANOMALY":262.3636,"EPHEMERIS_TYPE":0,"CLASSIFICATION_TYPE":"U","NORAD_CAT_ID":54802,"ELEMENT_SET_NO":999,"REV_AT_EPOCH":18073,"BSTAR":-7.72354e-5,"MEAN_MOTION_DOT":-1.517e-5,"MEAN_MOTION_DDOT":0},{"OBJECT_NAME":"OBJECT H","OBJECT_ID":"2017-042H","EPOCH":"2026-03-09T21:54:40.929408","MEAN_MOTION":15.07257911,"ECCENTRICITY":0.00117342,"INCLINATION":97.4058,"RA_OF_ASC_NODE":233.05,"ARG_OF_PERICENTER":93.954,"MEAN_ANOMALY":266.303,"EPHEMERIS_TYPE":0,"CLASSIFICATION_TYPE":"U","NORAD_CAT_ID":42832,"ELEMENT_SET_NO":999,"REV_AT_EPOCH":47198,"BSTAR":0.00041037265,"MEAN_MOTION_DOT":6.138e-5,"MEAN_MOTION_DDOT":0}]
